GLOBALSTAR M045         
1 25676U 99019A   25062.87860885 -.00000067  00000+0  23176-3 0  9994
2 25676  51.9946 245.4224 0001007  73.7434  73.2412 12.27058350180462
GLOBALSTAR M019         
1 25677U 99019B   25062.86088049 -.00000229  00000+0 -14542-2 0  9995
2 25677  51.9912   8.4240 0001451  95.9549 298.0363 12.13872954172357
GLOBALSTAR M042         
1 25679U 99019D   25062.87768520 -.00000074  00000+0  16866-3 0  9996
2 25679  52.0046 348.2459 0003362  79.3587 323.2859 12.22079374172386
GLOBALSTAR M025         
1 25770U 99031A   25062.95281573 -.00000084  00000+0 -52104-3 0  9996
2 25770  51.9835  43.0514 0001437 336.7540  34.9776 11.22559508469894
GLOBALSTAR M049         
1 25771U 99031B   25062.46811876 -.00000015  00000+0  17456-2 0  9991
2 25771  51.9869  73.6252 0003251 192.9538 167.1175 11.12115472105666
GLOBALSTAR M047         
1 25772U 99031C   25062.71003418 -.00000072  00000+0 -62697-4 0  9998
2 25772  51.9824  80.1248 0016428  82.7804 277.4869 11.31926227459169
GLOBALSTAR M052         
1 25773U 99031D   25062.54294417 -.00000051  00000+0  49168-3 0  9994
2 25773  51.9850 183.6191 0002077  18.4966  66.0462 11.15058109466723
